STARLINK-36802          
1 67985U 26038AA  26067.41668981 -.01574359  72059-3 -40854-2 0  9993
2 67985  97.2686  77.6373 0001260  92.7652 314.0926 15.95147214  2992
STARLINK-36535          
1 67986U 26039A   26067.41668981 -.01413060  00000+0 -58864-2 0  9999
2 67986  42.9978  62.7838 0001513 271.5735  57.7647 15.87567090  2670
STARLINK-36744          
1 67987U 26039B   26067.41668981 -.01414064  00000+0 -58357-2 0  9992
2 67987  42.9976  62.7759 0001753 272.9890  59.4013 15.87752198  2675
STARLINK-36734          
1 67988U 26039C   26067.41668981 -.01403887  00000+0 -57467-2 0  9995
2 67988  42.9977  62.7672 0001655 273.7497  62.0156 15.87893630  2679
STARLINK-36957          
1 67989U 26039D   26067.41668981 -.01407066  00000+0 -57085-2 0  9995
2 67989  42.9974  62.7591 0001735 274.8977  63.9032 15.88075871  2674
STARLINK-36951          
1 67990U 26039E   26066.91668981 -.01439563  00000+0 -53530-2 0  9999
2 67990  42.9974  65.8439 0001768 260.9804  97.3100 15.89848545  2597
STARLINK-36941          
1 67991U 26039F   26067.41668981 -.01345523  00000+0 -53433-2 0  9990
2 67991  42.9974  62.7433 0001596 267.5929  77.3794 15.88372381  2673
STARLINK-36950          
1 67992U 26039G   26067.41668981 -.01400138  00000+0 -55387-2 0  9995
2 67992  42.9974  62.7353 0001753 268.8772  79.3045 15.88559509  2670
STARLINK-36975          
1 67993U 26039H   26067.41668981 -.01391344  00000+0 -54562-2 0  9998
2 67993  42.9973  62.7274 0001699 275.8436  75.4305 15.88713003  2673
STARLINK-36993          
1 67994U 26039J   26067.41668981 -.01388870  00000+0 -54060-2 0  9992
2 67994  42.9974  62.7196 0001720 277.1968  77.3299 15.88854209  2675
STARLINK-36968          
1 67995U 26039K   26067.41668981 -.01404439  00000+0 -54170-2 0  9995
2 67995  42.9974  62.7008 0001684 272.8604  88.9998 15.89065083  2675
STARLINK-36979          
1 67996U 26039L   26067.41668981 -.01403006  00000+0 -54527-2 0  9991
2 67996  42.9971  62.7085 0001792 276.1836  82.5570 15.88912319  2670
