CCSDS_OMM_VERS = 2.0
CREATION_DATE  = 
ORIGINATOR     = 

OBJECT_NAME    = STARLINK-36802
OBJECT_ID      = 2026-038AA
CENTER_NAME    = EARTH
REF_FRAME      = TEME
TIME_SYSTEM    = UTC
MEAN_ELEMENT_THEORY = SGP/SGP4

EPOCH          = 2026-03-08T10:00:01.999584
MEAN_MOTION    = 15.95147214
ECCENTRICITY   = .000126
INCLINATION    = 97.2686
RA_OF_ASC_NODE = 77.6373
ARG_OF_PERICENTER = 92.7652
MEAN_ANOMALY   = 314.0926

EPHEMERIS_TYPE = 0
CLASSIFICATION_TYPE = U
NORAD_CAT_ID   = 67985
ELEMENT_SET_NO = 999
REV_AT_EPOCH   = 299
BSTAR          = -.40854E-2
MEAN_MOTION_DOT = -.1574359E-1
MEAN_MOTION_DDOT = .72059E-3

CCSDS_OMM_VERS = 2.0
CREATION_DATE  = 
ORIGINATOR     = 

OBJECT_NAME    = STARLINK-36535
OBJECT_ID      = 2026-039A
CENTER_NAME    = EARTH
REF_FRAME      = TEME
TIME_SYSTEM    = UTC
MEAN_ELEMENT_THEORY = SGP/SGP4

EPOCH          = 2026-03-08T10:00:01.999584
MEAN_MOTION    = 15.87567090
ECCENTRICITY   = .0001513
INCLINATION    = 42.9978
RA_OF_ASC_NODE = 62.7838
ARG_OF_PERICENTER = 271.5735
MEAN_ANOMALY   = 57.7647

EPHEMERIS_TYPE = 0
CLASSIFICATION_TYPE = U
NORAD_CAT_ID   = 67986
ELEMENT_SET_NO = 999
REV_AT_EPOCH   = 267
BSTAR          = -.58864E-2
MEAN_MOTION_DOT = -.141306E-1
MEAN_MOTION_DDOT = 0

CCSDS_OMM_VERS = 2.0
CREATION_DATE  = 
ORIGINATOR     = 

OBJECT_NAME    = STARLINK-36744
OBJECT_ID      = 2026-039B
CENTER_NAME    = EARTH
REF_FRAME      = TEME
TIME_SYSTEM    = UTC
MEAN_ELEMENT_THEORY = SGP/SGP4

EPOCH          = 2026-03-08T10:00:01.999584
MEAN_MOTION    = 15.87752198
ECCENTRICITY   = .0001753
INCLINATION    = 42.9976
RA_OF_ASC_NODE = 62.7759
ARG_OF_PERICENTER = 272.9890
MEAN_ANOMALY   = 59.4013

EPHEMERIS_TYPE = 0
CLASSIFICATION_TYPE = U
NORAD_CAT_ID   = 67987
ELEMENT_SET_NO = 999
REV_AT_EPOCH   = 267
BSTAR          = -.58357E-2
MEAN_MOTION_DOT = -.1414064E-1
MEAN_MOTION_DDOT = 0

CCSDS_OMM_VERS = 2.0
CREATION_DATE  = 
ORIGINATOR     = 

OBJECT_NAME    = STARLINK-36734
OBJECT_ID      = 2026-039C
CENTER_NAME    = EARTH
REF_FRAME      = TEME
TIME_SYSTEM    = UTC
MEAN_ELEMENT_THEORY = SGP/SGP4

EPOCH          = 2026-03-08T10:00:01.999584
MEAN_MOTION    = 15.87893630
ECCENTRICITY   = .0001655
INCLINATION    = 42.9977
RA_OF_ASC_NODE = 62.7672
ARG_OF_PERICENTER = 273.7497
MEAN_ANOMALY   = 62.0156

EPHEMERIS_TYPE = 0
CLASSIFICATION_TYPE = U
NORAD_CAT_ID   = 67988
ELEMENT_SET_NO = 999
REV_AT_EPOCH   = 267
BSTAR          = -.57467E-2
MEAN_MOTION_DOT = -.1403887E-1
MEAN_MOTION_DDOT = 0

CCSDS_OMM_VERS = 2.0
CREATION_DATE  = 
ORIGINATOR     = 

OBJECT_NAME    = STARLINK-36957
OBJECT_ID      = 2026-039D
CENTER_NAME    = EARTH
REF_FRAME      = TEME
TIME_SYSTEM    = UTC
MEAN_ELEMENT_THEORY = SGP/SGP4

EPOCH          = 2026-03-08T10:00:01.999584
MEAN_MOTION    = 15.88075871
ECCENTRICITY   = .0001735
INCLINATION    = 42.9974
RA_OF_ASC_NODE = 62.7591
ARG_OF_PERICENTER = 274.8977
MEAN_ANOMALY   = 63.9032

EPHEMERIS_TYPE = 0
CLASSIFICATION_TYPE = U
NORAD_CAT_ID   = 67989
ELEMENT_SET_NO = 999
REV_AT_EPOCH   = 267
BSTAR          = -.57085E-2
MEAN_MOTION_DOT = -.1407066E-1
MEAN_MOTION_DDOT = 0

CCSDS_OMM_VERS = 2.0
CREATION_DATE  = 
ORIGINATOR     = 

OBJECT_NAME    = STARLINK-36951
OBJECT_ID      = 2026-039E
CENTER_NAME    = EARTH
REF_FRAME      = TEME
TIME_SYSTEM    = UTC
MEAN_ELEMENT_THEORY = SGP/SGP4

EPOCH          = 2026-03-07T22:00:01.999584
MEAN_MOTION    = 15.89848545
ECCENTRICITY   = .00017682
INCLINATION    = 42.9974
RA_OF_ASC_NODE = 65.8439
ARG_OF_PERICENTER = 260.9804
MEAN_ANOMALY   = 97.3100

EPHEMERIS_TYPE = 0
CLASSIFICATION_TYPE = U
NORAD_CAT_ID   = 67990
ELEMENT_SET_NO = 999
REV_AT_EPOCH   = 259
BSTAR          = -.53530396E-2
MEAN_MOTION_DOT = -.1439563E-1
MEAN_MOTION_DDOT = 0

CCSDS_OMM_VERS = 2.0
CREATION_DATE  = 
ORIGINATOR     = 

OBJECT_NAME    = STARLINK-36941
OBJECT_ID      = 2026-039F
CENTER_NAME    = EARTH
REF_FRAME      = TEME
TIME_SYSTEM    = UTC
MEAN_ELEMENT_THEORY = SGP/SGP4

EPOCH          = 2026-03-08T10:00:01.999584
MEAN_MOTION    = 15.88372381
ECCENTRICITY   = .0001596
INCLINATION    = 42.9974
RA_OF_ASC_NODE = 62.7433
ARG_OF_PERICENTER = 267.5929
MEAN_ANOMALY   = 77.3794

EPHEMERIS_TYPE = 0
CLASSIFICATION_TYPE = U
NORAD_CAT_ID   = 67991
ELEMENT_SET_NO = 999
REV_AT_EPOCH   = 267
BSTAR          = -.53433E-2
MEAN_MOTION_DOT = -.1345523E-1
MEAN_MOTION_DDOT = 0

CCSDS_OMM_VERS = 2.0
CREATION_DATE  = 
ORIGINATOR     = 

OBJECT_NAME    = STARLINK-36950
OBJECT_ID      = 2026-039G
CENTER_NAME    = EARTH
REF_FRAME      = TEME
TIME_SYSTEM    = UTC
MEAN_ELEMENT_THEORY = SGP/SGP4

EPOCH          = 2026-03-08T10:00:01.999584
MEAN_MOTION    = 15.88559509
ECCENTRICITY   = .0001753
INCLINATION    = 42.9974
RA_OF_ASC_NODE = 62.7353
ARG_OF_PERICENTER = 268.8772
MEAN_ANOMALY   = 79.3045

EPHEMERIS_TYPE = 0
CLASSIFICATION_TYPE = U
NORAD_CAT_ID   = 67992
ELEMENT_SET_NO = 999
REV_AT_EPOCH   = 267
BSTAR          = -.55387E-2
MEAN_MOTION_DOT = -.1400138E-1
MEAN_MOTION_DDOT = 0

CCSDS_OMM_VERS = 2.0
CREATION_DATE  = 
ORIGINATOR     = 

OBJECT_NAME    = STARLINK-36975
OBJECT_ID      = 2026-039H
CENTER_NAME    = EARTH
REF_FRAME      = TEME
TIME_SYSTEM    = UTC
MEAN_ELEMENT_THEORY = SGP/SGP4

EPOCH          = 2026-03-08T10:00:01.999584
MEAN_MOTION    = 15.88713003
ECCENTRICITY   = .0001699
INCLINATION    = 42.9973
RA_OF_ASC_NODE = 62.7274
ARG_OF_PERICENTER = 275.8436
MEAN_ANOMALY   = 75.4305

EPHEMERIS_TYPE = 0
CLASSIFICATION_TYPE = U
NORAD_CAT_ID   = 67993
ELEMENT_SET_NO = 999
REV_AT_EPOCH   = 267
BSTAR          = -.54562E-2
MEAN_MOTION_DOT = -.1391344E-1
MEAN_MOTION_DDOT = 0

CCSDS_OMM_VERS = 2.0
CREATION_DATE  = 
ORIGINATOR     = 

OBJECT_NAME    = STARLINK-36993
OBJECT_ID      = 2026-039J
CENTER_NAME    = EARTH
REF_FRAME      = TEME
TIME_SYSTEM    = UTC
MEAN_ELEMENT_THEORY = SGP/SGP4

EPOCH          = 2026-03-08T10:00:01.999584
MEAN_MOTION    = 15.88854209
ECCENTRICITY   = .000172
INCLINATION    = 42.9974
RA_OF_ASC_NODE = 62.7196
ARG_OF_PERICENTER = 277.1968
MEAN_ANOMALY   = 77.3299

EPHEMERIS_TYPE = 0
CLASSIFICATION_TYPE = U
NORAD_CAT_ID   = 67994
ELEMENT_SET_NO = 999
REV_AT_EPOCH   = 267
BSTAR          = -.5406E-2
MEAN_MOTION_DOT = -.138887E-1
MEAN_MOTION_DDOT = 0

CCSDS_OMM_VERS = 2.0
CREATION_DATE  = 
ORIGINATOR     = 

OBJECT_NAME    = STARLINK-36968
OBJECT_ID      = 2026-039K
CENTER_NAME    = EARTH
REF_FRAME      = TEME
TIME_SYSTEM    = UTC
MEAN_ELEMENT_THEORY = SGP/SGP4

EPOCH          = 2026-03-08T10:00:01.999584
MEAN_MOTION    = 15.89065083
ECCENTRICITY   = .0001684
INCLINATION    = 42.9974
RA_OF_ASC_NODE = 62.7008
ARG_OF_PERICENTER = 272.8604
MEAN_ANOMALY   = 88.9998

EPHEMERIS_TYPE = 0
CLASSIFICATION_TYPE = U
NORAD_CAT_ID   = 67995
ELEMENT_SET_NO = 999
REV_AT_EPOCH   = 267
BSTAR          = -.5417E-2
MEAN_MOTION_DOT = -.1404439E-1
MEAN_MOTION_DDOT = 0

CCSDS_OMM_VERS = 2.0
CREATION_DATE  = 
ORIGINATOR     = 

OBJECT_NAME    = STARLINK-36979
OBJECT_ID      = 2026-039L
CENTER_NAME    = EARTH
REF_FRAME      = TEME
TIME_SYSTEM    = UTC
MEAN_ELEMENT_THEORY = SGP/SGP4

EPOCH          = 2026-03-08T10:00:01.999584
MEAN_MOTION    = 15.88912319
ECCENTRICITY   = .0001792
INCLINATION    = 42.9971
RA_OF_ASC_NODE = 62.7085
ARG_OF_PERICENTER = 276.1836
MEAN_ANOMALY   = 82.5570

EPHEMERIS_TYPE = 0
CLASSIFICATION_TYPE = U
NORAD_CAT_ID   = 67996
ELEMENT_SET_NO = 999
REV_AT_EPOCH   = 267
BSTAR          = -.54527E-2
MEAN_MOTION_DOT = -.1403006E-1
MEAN_MOTION_DDOT = 0

